[{"OBJECT_NAME":"STARLINK-5499","OBJECT_ID":"2023-028Z","EPOCH":"2026-03-09T20:22:13.301184","MEAN_MOTION":14.98331604,"ECCENTRICITY":0.00025139,"INCLINATION":70.0001,"RA_OF_ASC_NODE":224.1861,"ARG_OF_PERICENTER":277.4306,"MEAN_ANOMALY":82.6567,"EPHEMERIS_TYPE":0,"CLASSIFICATION_TYPE":"U","NORAD_CAT_ID":55764,"ELEMENT_SET_NO":999,"REV_AT_EPOCH":16655,"BSTAR":1.602232e-6,"MEAN_MOTION_DOT":-7.4e-7,"MEAN_MOTION_DDOT":0},{"OBJECT_NAME":"NIGHTJAR","OBJECT_ID":"2024-149BV","EPOCH":"2026-03-09T15:29:33.054144","MEAN_MOTION":14.9839881,"ECCENTRICITY":0.00023928,"INCLINATION":97.6919,"RA_OF_ASC_NODE":146.7603,"ARG_OF_PERICENTER":83.3363,"MEAN_ANOMALY":276.8132,"EPHEMERIS_TYPE":0,"CLASSIFICATION_TYPE":"U","NORAD_CAT_ID":60535,"ELEMENT_SET_NO":999,"REV_AT_EPOCH":12796,"BSTAR":0.00036343971,"MEAN_MOTION_DOT":4.278e-5,"MEAN_MOTION_DDOT":0}]
